start=new Date('2023-07-03T00:00:00.000Z').valueOf();
sats=[{"TIME_SYSTEM":"UTC","ELEMENT_SET_NO":"999","GP_ID":"234664221","TLE_LINE1":"1 56093U 23046A   23183.04941653  .00000687  00000-0  65967-4 0  9995","APOAPSIS":"559.940","COUNTRY_CODE":"US","INCLINATION":"43.0034","DECAY_DATE":null,"PERIAPSIS":"558.253","TLE_LINE2":"2 56093  43.0034  93.2696 0001216 269.7376  90.3326 15.02531251 14939","EPHEMERIS_TYPE":"0","MEAN_ELEMENT_THEORY":"SGP4","MEAN_MOTION_DDOT":"0.0000000000000","REV_AT_EPOCH":"1493","MEAN_ANOMALY":"90.3326","RCS_SIZE":"LARGE","SITE":"AFETR","OBJECT_NAME":"STARLINK-6102","LAUNCH_DATE":"2023-03-29","RA_OF_ASC_NODE":"93.2696","OBJECT_ID":"2023-046A","PERIOD":"95.838","CLASSIFICATION_TYPE":"U","EPOCH":"2023-07-02T01:11:09.588192","NORAD_CAT_ID":"56093","OBJECT_TYPE":"PAYLOAD","MEAN_MOTION":"15.02531251","SEMIMAJOR_AXIS":"6937.231","REF_FRAME":"TEME","BSTAR":"0.00006596700000","ARG_OF_PERICENTER":"269.7376","MEAN_MOTION_DOT":"0.00000687","CENTER_NAME":"EARTH","ECCENTRICITY":"0.00012160","FILE":"3947325"},{"PERIOD":"95.838","EPOCH":"2023-07-02T10:32:44.242944","CLASSIFICATION_TYPE":"U","NORAD_CAT_ID":"56094","OBJECT_TYPE":"PAYLOAD","MEAN_MOTION":"15.02532790","SEMIMAJOR_AXIS":"6937.226","REF_FRAME":"TEME","BSTAR":"0.00006355000000","ARG_OF_PERICENTER":"271.4164","MEAN_MOTION_DOT":"0.00000655","CENTER_NAME":"EARTH","ECCENTRICITY":"0.00014250","FILE":"3947592","TIME_SYSTEM":"UTC","GP_ID":"234670663","ELEMENT_SET_NO":"999","COUNTRY_CODE":"US","TLE_LINE1":"1 56094U 23046B   23183.43940096  .00000655  00000-0  63550-4 0  9990","APOAPSIS":"560.080","INCLINATION":"43.0036","DECAY_DATE":null,"PERIAPSIS":"558.103","TLE_LINE2":"2 56094  43.0036  91.0331 0001425 271.4164  88.6515 15.02532790 14996","MEAN_ELEMENT_THEORY":"SGP4","EPHEMERIS_TYPE":"0","MEAN_MOTION_DDOT":"0.0000000000000","REV_AT_EPOCH":"1499","RCS_SIZE":"LARGE","MEAN_ANOMALY":"88.6515","OBJECT_NAME":"STARLINK-6109","SITE":"AFETR","LAUNCH_DATE":"2023-03-29","RA_OF_ASC_NODE":"91.0331","OBJECT_ID":"2023-046B"},{"SITE":"AFETR","OBJECT_NAME":"STARLINK-6090","LAUNCH_DATE":"2023-03-29","OBJECT_ID":"2023-046C","RA_OF_ASC_NODE":"93.2525","TLE_LINE2":"2 56095  43.0032  93.2525 0001488 272.2308  87.8364 15.02534537 14938","EPHEMERIS_TYPE":"0","MEAN_ELEMENT_THEORY":"SGP4","REV_AT_EPOCH":"1493","MEAN_MOTION_DDOT":"0.0000000000000","MEAN_ANOMALY":"87.8364","RCS_SIZE":"LARGE","COUNTRY_CODE":"US","TLE_LINE1":"1 56095U 23046C   23183.04719450  .00000927  00000-0  83727-4 0  9996","APOAPSIS":"560.118","INCLINATION":"43.0032","DECAY_DATE":null,"PERIAPSIS":"558.054","TIME_SYSTEM":"UTC","GP_ID":"234663727","ELEMENT_SET_NO":"999","CENTER_NAME":"EARTH","FILE":"3947325","ECCENTRICITY":"0.00014880","BSTAR":"0.00008372700000","ARG_OF_PERICENTER":"272.2308","MEAN_MOTION_DOT":"0.00000927","OBJECT_TYPE":"PAYLOAD","NORAD_CAT_ID":"56095","SEMIMAJOR_AXIS":"6937.221","MEAN_MOTION":"15.02534537","REF_FRAME":"TEME","PERIOD":"95.838","EPOCH":"2023-07-02T01:07:57.604800","CLASSIFICATION_TYPE":"U"},{"CLASSIFICATION_TYPE":"U","EPOCH":"2023-07-02T10:29:32.479008","PERIOD":"95.838","REF_FRAME":"TEME","SEMIMAJOR_AXIS":"6937.221","MEAN_MOTION":"15.02534465","OBJECT_TYPE":"PAYLOAD","NORAD_CAT_ID":"56096","MEAN_MOTION_DOT":"0.00001182","ARG_OF_PERICENTER":"266.6630","BSTAR":"0.00010257000000","ECCENTRICITY":"0.00014410","FILE":"3947592","CENTER_NAME":"EARTH","GP_ID":"234670823","ELEMENT_SET_NO":"999","TIME_SYSTEM":"UTC","PERIAPSIS":"558.087","DECAY_DATE":null,"INCLINATION":"43.0040","TLE_LINE1":"1 56096U 23046D   23183.43718147  .00001182  00000-0  10257-3 0  9993","COUNTRY_CODE":"US","APOAPSIS":"560.086","MEAN_ANOMALY":"93.4048","RCS_SIZE":"LARGE","REV_AT_EPOCH":"1499","MEAN_MOTION_DDOT":"0.0000000000000","MEAN_ELEMENT_THEORY":"SGP4","EPHEMERIS_TYPE":"0","TLE_LINE2":"2 56096  43.0040  91.0160 0001441 266.6630  93.4048 15.02534465 14991","RA_OF_ASC_NODE":"91.0160","OBJECT_ID":"2023-046D","LAUNCH_DATE":"2023-03-29","SITE":"AFETR","OBJECT_NAME":"STARLINK-6089"},{"RA_OF_ASC_NODE":"54.1421","OBJECT_ID":"2023-046E","LAUNCH_DATE":"2023-03-29","OBJECT_NAME":"STARLINK-6077","SITE":"AFETR","MEAN_ANOMALY":"67.9929","RCS_SIZE":"LARGE","MEAN_MOTION_DDOT":"0.0000000000000","REV_AT_EPOCH":"1539","MEAN_ELEMENT_THEORY":"SGP4","EPHEMERIS_TYPE":"0","TLE_LINE2":"2 56097  43.0018  54.1421 0001611 274.5291  67.9929 15.63659399 15397","DECAY_DATE":null,"PERIAPSIS":"376.011","TLE_LINE1":"1 56097U 23046E   23183.16667824 -.00909555  00000-0 -10431-1 0  9994","INCLINATION":"43.0018","COUNTRY_CODE":"US","APOAPSIS":"378.187","ELEMENT_SET_NO":"999","GP_ID":"234677001","TIME_SYSTEM":"UTC","FILE":"3947840","ECCENTRICITY":"0.00016110","CENTER_NAME":"EARTH","MEAN_MOTION_DOT":"-0.00909555","ARG_OF_PERICENTER":"274.5291","BSTAR":"-0.01043100000000","REF_FRAME":"TEME","MEAN_MOTION":"15.63659399","SEMIMAJOR_AXIS":"6755.234","NORAD_CAT_ID":"56097","OBJECT_TYPE":"PAYLOAD","EPOCH":"2023-07-02T04:00:00.999936","CLASSIFICATION_TYPE":"U","PERIOD":"92.092"},{"ARG_OF_PERICENTER":"268.2297","MEAN_MOTION_DOT":"0.00000400","BSTAR":"0.00004471500000","FILE":"3947044","ECCENTRICITY":"0.00014810","CENTER_NAME":"EARTH","EPOCH":"2023-07-01T18:40:15.355200","CLASSIFICATION_TYPE":"U","PERIOD":"95.838","MEAN_MOTION":"15.02532144","SEMIMAJOR_AXIS":"6937.228","REF_FRAME":"TEME","NORAD_CAT_ID":"56098","OBJECT_TYPE":"PAYLOAD","MEAN_MOTION_DDOT":"0.0000000000000","REV_AT_EPOCH":"1489","RCS_SIZE":"LARGE","MEAN_ANOMALY":"91.8376","TLE_LINE2":"2 56098  43.0037  94.6697 0001481 268.2297  91.8376 15.02532144 14891","EPHEMERIS_TYPE":"0","MEAN_ELEMENT_THEORY":"SGP4","RA_OF_ASC_NODE":"94.6697","OBJECT_ID":"2023-046F","SITE":"AFETR","OBJECT_NAME":"STARLINK-6088","LAUNCH_DATE":"2023-03-29","TIME_SYSTEM":"UTC","GP_ID":"234657263","ELEMENT_SET_NO":"999","TLE_LINE1":"1 56098U 23046F   23182.77795550  .00000400  00000-0  44715-4 0  9993","COUNTRY_CODE":"US","APOAPSIS":"560.121","INCLINATION":"43.0037","PERIAPSIS":"558.066","DECAY_DATE":null},{"BSTAR":"0.00003203800000","ARG_OF_PERICENTER":"276.6955","MEAN_MOTION_DOT":"0.00000229","CENTER_NAME":"EARTH","FILE":"3947044","ECCENTRICITY":"0.00012650","PERIOD":"95.838","EPOCH":"2023-07-01T18:24:16.300512","CLASSIFICATION_TYPE":"U","NORAD_CAT_ID":"56099","OBJECT_TYPE":"PAYLOAD","MEAN_MOTION":"15.02535442","SEMIMAJOR_AXIS":"6937.218","REF_FRAME":"TEME","TLE_LINE2":"2 56099  43.0036  94.5869 0001265 276.6955  83.3743 15.02535442 14893","EPHEMERIS_TYPE":"0","MEAN_ELEMENT_THEORY":"SGP4","MEAN_MOTION_DDOT":"0.0000000000000","REV_AT_EPOCH":"1489","RCS_SIZE":"LARGE","MEAN_ANOMALY":"83.3743","SITE":"AFETR","OBJECT_NAME":"STARLINK-6093","LAUNCH_DATE":"2023-03-29","RA_OF_ASC_NODE":"94.5869","OBJECT_ID":"2023-046G","TIME_SYSTEM":"UTC","GP_ID":"234657272","ELEMENT_SET_NO":"999","TLE_LINE1":"1 56099U 23046G   23182.76685533  .00000229  00000-0  32038-4 0  9996","COUNTRY_CODE":"US","APOAPSIS":"559.961","INCLINATION":"43.0036","PERIAPSIS":"558.206","DECAY_DATE":null},{"BSTAR":"0.00011364000000","MEAN_MOTION_DOT":"0.00001332","ARG_OF_PERICENTER":"266.9851","CENTER_NAME":"EARTH","FILE":"3947593","ECCENTRICITY":"0.00014290","PERIOD":"95.838","CLASSIFICATION_TYPE":"U","EPOCH":"2023-07-02T10:16:45.208992","OBJECT_TYPE":"PAYLOAD","NORAD_CAT_ID":"56100","REF_FRAME":"TEME","SEMIMAJOR_AXIS":"6937.226","MEAN_MOTION":"15.02532768","EPHEMERIS_TYPE":"0","MEAN_ELEMENT_THEORY":"SGP4","TLE_LINE2":"2 56100  43.0037  90.9515 0001429 266.9851  93.0827 15.02532768 14994","MEAN_ANOMALY":"93.0827","RCS_SIZE":"LARGE","REV_AT_EPOCH":"1499","MEAN_MOTION_DDOT":"0.0000000000000","LAUNCH_DATE":"2023-03-29","OBJECT_NAME":"STARLINK-6076","SITE":"AFETR","RA_OF_ASC_NODE":"90.9515","OBJECT_ID":"2023-046H","ELEMENT_SET_NO":"999","GP_ID":"234670826","TIME_SYSTEM":"UTC","PERIAPSIS":"558.100","DECAY_DATE":null,"COUNTRY_CODE":"US","TLE_LINE1":"1 56100U 23046H   23183.42830103  .00001332  00000-0  11364-3 0  9992","INCLINATION":"43.0037","APOAPSIS":"560.083"},{"MEAN_MOTION":"15.02525599","SEMIMAJOR_AXIS":"6937.249","REF_FRAME":"TEME","NORAD_CAT_ID":"56101","OBJECT_TYPE":"PAYLOAD","EPOCH":"2023-07-02T10:13:34.606272","CLASSIFICATION_TYPE":"U","PERIOD":"95.839","ECCENTRICITY":"0.00014700","FILE":"3947593","CENTER_NAME":"EARTH","ARG_OF_PERICENTER":"260.4660","MEAN_MOTION_DOT":"0.00000422","BSTAR":"0.00004632000000","TLE_LINE1":"1 56101U 23046J   23183.42609498  .00000422  00000-0  46320-4 0  9994","APOAPSIS":"560.133","COUNTRY_CODE":"US","INCLINATION":"43.0037","DECAY_DATE":null,"PERIAPSIS":"558.094","TIME_SYSTEM":"UTC","GP_ID":"234670829","ELEMENT_SET_NO":"999","RA_OF_ASC_NODE":"90.9305","OBJECT_ID":"2023-046J","SITE":"AFETR","OBJECT_NAME":"STARLINK-6095","LAUNCH_DATE":"2023-03-29","MEAN_MOTION_DDOT":"0.0000000000000","REV_AT_EPOCH":"1499","MEAN_ANOMALY":"99.6017","RCS_SIZE":"LARGE","TLE_LINE2":"2 56101  43.0037  90.9305 0001470 260.4660  99.6017 15.02525599 14992","MEAN_ELEMENT_THEORY":"SGP4","EPHEMERIS_TYPE":"0"},{"ARG_OF_PERICENTER":"267.8488","MEAN_MOTION_DOT":"0.00000190","BSTAR":"0.00002912600000","FILE":"3947625","ECCENTRICITY":"0.00013510","CENTER_NAME":"EARTH","CLASSIFICATION_TYPE":"U","EPOCH":"2023-07-02T10:24:44.733312","PERIOD":"95.838","MEAN_MOTION":"15.02538107","SEMIMAJOR_AXIS":"6937.210","REF_FRAME":"TEME","NORAD_CAT_ID":"56102","OBJECT_TYPE":"PAYLOAD","MEAN_MOTION_DDOT":"0.0000000000000","REV_AT_EPOCH":"1499","MEAN_ANOMALY":"92.2200","RCS_SIZE":"LARGE","TLE_LINE2":"2 56102  43.0038  90.9908 0001351 267.8488  92.2200 15.02538107 14992","EPHEMERIS_TYPE":"0","MEAN_ELEMENT_THEORY":"SGP4","OBJECT_ID":"2023-046K","RA_OF_ASC_NODE":"90.9908","OBJECT_NAME":"STARLINK-6075","SITE":"AFETR","LAUNCH_DATE":"2023-03-29","TIME_SYSTEM":"UTC","GP_ID":"234671586","ELEMENT_SET_NO":"999","APOAPSIS":"560.012","TLE_LINE1":"1 56102U 23046K   23183.43385108  .00000190  00000-0  29126-4 0  9992","COUNTRY_CODE":"US","INCLINATION":"43.0038","DECAY_DATE":null,"PERIAPSIS":"558.138"}];
